#aV2014 12 17  0  0  0.00000000     288 DD+AD WGS84 FIT  NGA
## 1823 259200.00000000   300.00000000 57008 0.0000000000000
+   32     1  2  3  4  5  6  7  8  9 10 11 12 13 14 15 16 17
+         18 19 20 21 22 23 24 25 26 27 28 29 30 31 32  0  0
+          0  0  0  0  0  0  0  0  0  0  0  0  0  0  0  0  0
+          0  0  0  0  0  0  0  0  0  0  0  0  0  0  0  0  0
+          0  0  0  0  0  0  0  0  0  0  0  0  0  0  0  0  0
++         2  2  2  2  2  2  2  2  2  2  2  2  2  2  2  2  2
++         2  2  2  2  2  2  2  2  2  2  2  2  2  2  2  0  0
++         0  0  0  0  0  0  0  0  0  0  0  0  0  0  0  0  0
++         0  0  0  0  0  0  0  0  0  0  0  0  0  0  0  0  0
++         0  0  0  0  0  0  0  0  0  0  0  0  0  0  0  0  0
%c cc cc ccc ccc cccc cccc cccc cccc ccccc ccccc ccccc ccccc
%c cc cc ccc ccc cccc cccc cccc cccc ccccc ccccc ccccc ccccc
%f  0.0000000  0.000000000  0.00000000000  0.000000000000000
%f  0.0000000  0.000000000  0.00000000000  0.000000000000000
%i    0    0    0    0      0      0      0      0         0
%i    0    0    0    0      0      0      0      0         0
/*      NGA, ST. LOUIS,MO.                                  
/*   EPHEMERIS COMPUTED FROM  1 DAYS OF DATA                
/*   EPOCHA SMOOTHER                                       
/* CCCCCCCCCCCCCCCCCCCCCCCCCCCCCCCCCCCCCCCCCCCCCCCCCCCCCCCCC
*  2014 12 17 19 15  0.00000000
P  1 -13291.522593  22858.133599  -1302.030234    -11.060495                    
V  1  -3339.077357   -210.287987  31816.627586      0.003604                    
P  2  18410.418397  -6035.997104 -17629.564229    536.428921                    
V  2  -9724.126461  21280.701011 -17600.543661      0.022299                    
P  3 -13095.295382  13005.885776 -19114.092607     82.500591                    
V  3 -24214.149926  -2099.489720  15111.114032      0.295199                    
P  4 -17760.514799  17508.446767   8432.245021     -4.435618                    
V  4   2803.775827 -11440.889619  28866.319869     -0.004772                    
P  5  26131.795349  -2585.656413   4535.082937   -304.831396                    
V  5   5724.198237   3207.964656 -30617.095197      0.048022                    
P  6  12781.653238   8251.790791 -21784.421081     29.253843                    
V  6 -14521.891643  23503.625179    365.936405      0.079995                    
P  7  -4386.972814  22702.703445  12837.474048    423.121279                    
V  7 -10771.846162  12383.565144 -26123.429596      0.035511                    
P  8 -19737.383727  13918.571298 -10035.718587     16.790588                    
V  8   6748.591505 -11572.632021 -29340.177936      0.001283                    
P  9   5869.758833  24258.336614  -9076.243421    -30.036466                    
V  9  -7782.271999  -8895.679641 -28827.368600     -0.094980                    
P 10  21719.978964   9963.436758 -12408.588161   -154.633023                    
V 10 -15145.537218   1769.025213 -25450.736043     -0.017401                    
P 11 -11690.983291  22150.151763   8088.481332   -544.296076                    
V 11  -2222.365410 -11915.933656  27799.382788     -0.028671                    
P 12  16130.104238 -10748.921819 -18136.670612    254.326583                    
V 12  22731.529643   2927.087547  18765.426121      0.028746                    
P 13  16898.531418   8759.754918  18333.709917    -70.454540                    
V 13   7506.074431  22388.944632 -17633.007327     -0.036011                    
P 14 -14938.427736 -20539.222975  -7792.680020    105.467788                    
V 14  -1968.693537 -10241.033399  29738.209049     -0.035942                    
P 15   8602.786649 -14732.091741  20207.799603   -220.908602                    
V 15  14388.024911  21700.705473   9972.764758     -0.022431                    
P 16 -26321.353574    632.796236   4718.820818   -172.423822                    
V 16  -5812.163459  -2121.624520 -31400.998820      0.030190                    
P 17  14771.866117  21323.476354  -5962.145167   -144.479025                    
V 17   1375.989926   8077.388482  30631.701645     -0.023934                    
P 18  -8181.524110 -15553.894136  20458.636334    365.811800                    
V 18  25022.285366   -578.863560   9478.635739      0.026535                    
P 19 -12625.554895   8348.597793  21620.490477   -492.842339                    
V 19 -11258.544353 -25509.934534   3689.332678     -0.015998                    
P 20  -9688.941260  15179.984410 -19707.649757    268.398382                    
V 20 -24786.114193   -599.925286  11926.217450      0.042673                    
P 21  -2375.163042 -20565.957965  17076.151909   -400.772318                    
V 21  12680.740157 -16502.612271 -19268.217227     -0.020984                    
P 22 -20489.114772 -10604.340040  13519.901170    297.854474                    
V 22  16903.716393  -2617.875757  23776.406268      0.037904                    
P 23  -3272.348513  19844.378031 -16998.603684    -75.164347                    
V 23 -12241.429038 -18454.115614 -19460.090063     -0.027207                    
P 24  14850.547885 -21836.150697   2079.009629    -40.242176                    
V 24   1279.360944   3891.342272  31563.794544     -0.006165                    
P 25   1964.189444 -14807.802238 -22034.656761      8.764511                    
V 25  27725.704508   1041.537618   1919.059299     -0.021107                    
P 26  15480.033271    102.790040  20963.692553   -160.421471                    
V 26  10267.101927  26160.641636  -7210.675702     -0.132099                    
P 27 -17075.959777  -2188.476905  20235.718420     37.761550                    
V 27 -11346.009057 -23060.246073 -11983.768570      0.027305                    
P 28  15919.714179  13125.414003  17413.304191    405.991178                    
V 28 -20797.986048  -1084.771442  20467.794605      0.026948                    
P 29  -2759.002150 -23915.600167 -11228.837437    580.169685                    
V 29   7967.943912  12028.184168 -27466.882097      0.024726                    
P 30   4893.461622  16961.231333  19831.012903    -85.149346                    
V 30 -15857.254156  19629.730567 -12922.480559     -0.010913                    
P 31 -14010.827128  -5481.625937 -21764.056552    327.214839                    
V 31  15338.071382 -23325.178796  -3651.848837     -0.007004                    
P 32 -22786.256601   5881.591052 -11751.291447   -268.630927                    
V 32 -14702.776271  -4856.275530  26612.988762      0.087860                    
EOF
